ORBCOMM FM24            
1 25478U 98053D   25328.96555157  .00001204  00000+0  43576-3 0  9998
2 25478  45.0075 226.5288 0003319 330.0657  30.0001 14.38588737420590
ORBCOMM FM25            
1 25479U 98053E   25328.45408079  .00001145  00000+0  41702-3 0  9996
2 25479  45.0067 227.2512 0005695 333.8998  26.1563 14.38556007420817
ORBCOMM FM26            
1 25480U 98053F   25328.43488174  .00001024  00000+0  38541-3 0  9993
2 25480  45.0064 224.9915 0007498 346.9521  13.1132 14.37539744420701
ORBCOMM FM27            
1 25481U 98053G   25328.99370445  .00001320  00000+0  47350-3 0  9993
2 25481  45.0047 224.8316 0001983 345.5336  14.5456 14.38591621420829
ORBCOMM FM28            
1 25482U 98053H   25328.87394395  .00001047  00000+0  38410-3 0  9994
2 25482  45.0036 162.6951 0004761  33.2093 326.9053 14.38721525421495
ORBCOMM FM30            
1 25980U 99065A   25328.54551012  .00001141  00000+0  42297-3 0  9999
2 25980  45.0324  50.4795 0005233 107.7578 252.3842 14.37703561357527
ORBCOMM FM31            
1 25981U 99065B   25328.52621254  .00001186  00000+0  43844-3 0  9992
2 25981  45.0240  44.0277 0003578 149.3213 210.7846 14.37631119357078
ORBCOMM FM32            
1 25982U 99065C   25328.60912229  .00001223  00000+0  45896-3 0  9998
2 25982  45.0161  61.2859 0005924 131.3401 228.7957 14.36685500357664
